{
  "type": "FeatureCollection",
  "name": "the_cove_deerfield_beach_gis_boundary",
  "crs": {
    "type": "name",
    "properties": {
      "name": "urn:ogc:def:crs:OGC:1.3:CRS84"
    }
  },
  "features": [
    {
      "type": "Feature",
      "properties": {
        "name": "The Cove - GIS-Informed Planning Boundary",
        "neighborhood": "The Cove",
        "city": "Deerfield Beach",
        "county": "Broward",
        "state": "Florida",
        "boundary_type": "interpretive planning boundary (GIS-informed)",
        "official_status": "unofficial - no official City/County GIS polygon found",
        "sources": "City of Deerfield Beach GIS & Planning/Zoning ArcGIS app; Broward County GIS/GeoHub (municipal boundaries, parcels, roads, waterways); Broward County Property Appraiser (bcpa.net); OpenStreetMap roads/waterways; published neighborhood descriptions",
        "notes": "North=Hillsboro Blvd; West=US-1/Federal Hwy; East=Intracoastal/canal waterfront; South=transition toward the Lighthouse Point municipal line. For planning/discussion use only - not a legal or surveyed boundary. See source_notes.md.",
        "created_date": "2026-07-03"
      },
      "geometry": {
        "type": "Polygon",
        "coordinates": [
          [
            [
              -80.09695,
              26.31858
            ],
            [
              -80.081,
              26.31858
            ],
            [
              -80.0798,
              26.31852
            ],
            [
              -80.07945,
              26.31848
            ],
            [
              -80.07936,
              26.3182
            ],
            [
              -80.0792,
              26.3176
            ],
            [
              -80.07906,
              26.317
            ],
            [
              -80.07895,
              26.3164
            ],
            [
              -80.07891,
              26.3161
            ],
            [
              -80.07883,
              26.3152
            ],
            [
              -80.07879,
              26.3143
            ],
            [
              -80.07879,
              26.314
            ],
            [
              -80.07882,
              26.3131
            ],
            [
              -80.07888,
              26.3122
            ],
            [
              -80.07954,
              26.3056
            ],
            [
              -80.07966,
              26.3047
            ],
            [
              -80.07982,
              26.3038
            ],
            [
              -80.0799,
              26.3035
            ],
            [
              -80.08,
              26.3032
            ],
            [
              -80.08012,
              26.3029
            ],
            [
              -80.08026,
              26.3026
            ],
            [
              -80.08043,
              26.3023
            ],
            [
              -80.08062,
              26.302
            ],
            [
              -80.08084,
              26.30172
            ],
            [
              -80.08138,
              26.30118
            ],
            [
              -80.0817,
              26.30094
            ],
            [
              -80.08205,
              26.30072
            ],
            [
              -80.08245,
              26.30055
            ],
            [
              -80.0829,
              26.30048
            ],
            [
              -80.0838,
              26.30043
            ],
            [
              -80.08515,
              26.3004
            ],
            [
              -80.0883,
              26.3004
            ],
            [
              -80.08965,
              26.30044
            ],
            [
              -80.0901,
              26.30047
            ],
            [
              -80.09055,
              26.30052
            ],
            [
              -80.091,
              26.3006
            ],
            [
              -80.09142,
              26.30072
            ],
            [
              -80.09182,
              26.30088
            ],
            [
              -80.0922,
              26.30108
            ],
            [
              -80.09256,
              26.3013
            ],
            [
              -80.0929,
              26.30155
            ],
            [
              -80.09322,
              26.30182
            ],
            [
              -80.09352,
              26.3021
            ],
            [
              -80.09407,
              26.3027
            ],
            [
              -80.09433,
              26.303
            ],
            [
              -80.09482,
              26.30365
            ],
            [
              -80.09527,
              26.30435
            ],
            [
              -80.09548,
              26.30472
            ],
            [
              -80.09566,
              26.3051
            ],
            [
              -80.09582,
              26.3055
            ],
            [
              -80.09596,
              26.3059
            ],
            [
              -80.09608,
              26.3063
            ],
            [
              -80.09627,
              26.30765
            ],
            [
              -80.09657,
              26.31035
            ],
            [
              -80.09681,
              26.31305
            ],
            [
              -80.0969,
              26.3144
            ],
            [
              -80.09694,
              26.3153
            ],
            [
              -80.09697,
              26.31665
            ],
            [
              -80.09695,
              26.31858
            ]
          ]
        ]
      }
    },
    {
      "type": "Feature",
      "properties": {
        "name": "The Cove Shopping Center / Commercial Core",
        "type": "commercial_core",
        "neighborhood": "The Cove",
        "city": "Deerfield Beach",
        "note": "The Cove Shopping Center, ~1574-1584 SE 3rd Ct, Deerfield Beach, FL 33441."
      },
      "geometry": {
        "type": "Point",
        "coordinates": [
          -80.08765,
          26.31515
        ]
      }
    },
    {
      "type": "Feature",
      "properties": {
        "name": "Hillsboro Blvd / US-1 edge (NW)",
        "type": "reference_point",
        "edge": "north/west corner"
      },
      "geometry": {
        "type": "Point",
        "coordinates": [
          -80.09695,
          26.31858
        ]
      }
    },
    {
      "type": "Feature",
      "properties": {
        "name": "Hillsboro Blvd / Intracoastal edge (NE)",
        "type": "reference_point",
        "edge": "north/east corner"
      },
      "geometry": {
        "type": "Point",
        "coordinates": [
          -80.07945,
          26.31848
        ]
      }
    },
    {
      "type": "Feature",
      "properties": {
        "name": "Intracoastal / waterfront edge (E mid)",
        "type": "reference_point",
        "edge": "east"
      },
      "geometry": {
        "type": "Point",
        "coordinates": [
          -80.07903,
          26.3107
        ]
      }
    },
    {
      "type": "Feature",
      "properties": {
        "name": "South waterfront transition (SE)",
        "type": "reference_point",
        "edge": "south/east corner"
      },
      "geometry": {
        "type": "Point",
        "coordinates": [
          -80.08245,
          26.30055
        ]
      }
    },
    {
      "type": "Feature",
      "properties": {
        "name": "South / US-1 transition (SW)",
        "type": "reference_point",
        "edge": "south/west corner"
      },
      "geometry": {
        "type": "Point",
        "coordinates": [
          -80.09608,
          26.3063
        ]
      }
    },
    {
      "type": "Feature",
      "properties": {
        "name": "US-1 / Federal Hwy edge (W mid)",
        "type": "reference_point",
        "edge": "west"
      },
      "geometry": {
        "type": "Point",
        "coordinates": [
          -80.09665,
          26.31125
        ]
      }
    }
  ]
}