{
  "type": "FeatureCollection",
  "name": "cove_waterfront_district_study_area",
  "crs": {
    "type": "name",
    "properties": {
      "name": "urn:ogc:def:crs:OGC:1.3:CRS84"
    }
  },
  "features": [
    {
      "type": "Feature",
      "properties": {
        "name": "Cove Waterfront District - Study Area",
        "neighborhood": "The Cove",
        "district": "Cove Waterfront District",
        "city": "Deerfield Beach",
        "county": "Broward",
        "state": "Florida",
        "boundary_type": "provided study-area boundary (waterfront district)",
        "official_status": "provided/official study area (from supplied KMZ) - supersedes the earlier interpretive polygon",
        "sources": "Supplied KMZ: 01__Cove_Waterfront_District_Study_Area.kmz",
        "notes": "Geometry preserved verbatim from the KMZ (32 vertices). North extends past Hillsboro Blvd to the north waterfront.",
        "created_date": "2026-07-03"
      },
      "geometry": {
        "type": "Polygon",
        "coordinates": [
          [
            [
              -80.09064,
              26.325227
            ],
            [
              -80.0926031,
              26.3262462
            ],
            [
              -80.0947219,
              26.3247556
            ],
            [
              -80.0956311,
              26.3238564
            ],
            [
              -80.0959394,
              26.3224188
            ],
            [
              -80.0982705,
              26.322438
            ],
            [
              -80.0996788,
              26.3204569
            ],
            [
              -80.0996841,
              26.3050311
            ],
            [
              -80.0956179,
              26.3050315
            ],
            [
              -80.0954999,
              26.3010012
            ],
            [
              -80.0937161,
              26.30096
            ],
            [
              -80.0924811,
              26.3007673
            ],
            [
              -80.0923447,
              26.3014301
            ],
            [
              -80.0914369,
              26.3015552
            ],
            [
              -80.0914229,
              26.3023822
            ],
            [
              -80.0914389,
              26.3039211
            ],
            [
              -80.0890954,
              26.3038581
            ],
            [
              -80.0853067,
              26.3026077
            ],
            [
              -80.0830918,
              26.3015397
            ],
            [
              -80.0800612,
              26.3014342
            ],
            [
              -80.0792668,
              26.3053238
            ],
            [
              -80.0800612,
              26.3090992
            ],
            [
              -80.0808984,
              26.3128745
            ],
            [
              -80.0813063,
              26.3169184
            ],
            [
              -80.0805762,
              26.3201882
            ],
            [
              -80.0804044,
              26.3208026
            ],
            [
              -80.0876574,
              26.3208026
            ],
            [
              -80.0883874,
              26.3209959
            ],
            [
              -80.0893305,
              26.3228421
            ],
            [
              -80.0892445,
              26.3240338
            ],
            [
              -80.0894596,
              26.3245916
            ],
            [
              -80.09064,
              26.325227
            ]
          ]
        ]
      }
    },
    {
      "type": "Feature",
      "properties": {
        "name": "The Cove Shopping Center / Commercial Core",
        "type": "commercial_core",
        "note": "The Cove Shopping Center, ~1574-1584 SE 3rd Ct, Deerfield Beach, FL 33441."
      },
      "geometry": {
        "type": "Point",
        "coordinates": [
          -80.08765,
          26.31515
        ]
      }
    }
  ]
}